GLOBALSTAR M001         
1 25162U 98008A   25075.51956291 -.00000046  00000+0  38466-3 0  9998
2 25162  52.0016 242.9414 0002252  73.5208 326.7725 12.38210003232340
GLOBALSTAR M004         
1 25163U 98008B   25074.88204966 -.00000041  00000+0  34913-3 0  9991
2 25163  52.0025 338.8038 0003741  81.8409 354.6297 12.63390222249899
GLOBALSTAR M002         
1 25164U 98008C   25075.13722106 -.00000046  00000+0  60633-3 0  9995
2 25164  51.9994 113.5106 0001011 337.7374  22.3402 11.61508080173320
GLOBALSTAR M003         
1 25165U 98008D   25074.92814814 -.00000052  00000+0  40491-3 0  9997
2 25165  51.9999  66.8039 0008273 105.1480 290.5482 12.12074803221917
GLOBALSTAR M014         
1 25306U 98023A   25075.43400299 -.00000083  00000+0 -11022-3 0  9999
2 25306  51.9861  37.9391 0000849 171.0136 339.1847 11.65478708180348
GLOBALSTAR M006         
1 25307U 98023B   25075.08663958 -.00000059  00000+0  34575-3 0  9994
2 25307  51.9925  87.8114 0003180 294.5899 104.6115 11.58172895206156
GLOBALSTAR M015         
1 25308U 98023C   25075.55119744 -.00000081  00000+0 -16450-3 0  9994
2 25308  51.9809 180.8816 0011992 269.1971 103.8604 11.48858842183802
GLOBALSTAR M008         
1 25309U 98023D   25074.86141760 -.00000072  00000+0  18961-3 0  9999
2 25309  51.9953 108.6291 0002313 343.9586 187.7094 12.36064374226302
